COSMOS 2433 (720)       
1 32275U 07052A   26004.14452804 -.00000066  00000+0  00000+0 0  9994
2 32275  65.6709 321.4535 0004759 260.0963  99.8415  2.13103742141564
COSMOS 2432 (719)       
1 32276U 07052B   26004.22369994 -.00000066  00000+0  00000+0 0  9991
2 32276  65.6866 321.5756 0011396 316.5410  48.5355  2.13102994141599
COSMOS 2434 (721)       
1 32393U 07065A   26004.04740177  .00000075  00000+0  00000+0 0  9990
2 32393  64.3167 197.4499 0004868  72.5858 103.3846  2.13101125140278
COSMOS 2436 (723)       
1 32395U 07065C   26004.11442987  .00000074  00000+0  00000+0 0  9997
2 32395  64.3251 197.5182 0017840  10.3618 350.0128  2.13099972140238
COSMOS 2456 (730)       
1 36111U 09070A   26004.17493286 -.00000015  00000+0  00000+0 0  9995
2 36111  64.9122  76.5711 0003989 297.0805 133.9370  2.13103414124939
COSMOS 2457 (733)       
1 36112U 09070B   26002.50739450 -.00000022  00000+0  00000+0 0  9995
2 36112  64.8966  76.4753 0004143 166.5862 194.0955  2.13100844124904
COSMOS 2460 (732)       
1 36402U 10007C   26004.05457696 -.00000065  00000+0  00000+0 0  9997
2 36402  65.5169 320.0207 0002329 291.8757 175.5709  2.13105940123238
COSMOS 2476 (744)       
1 37867U 11064A   26003.99889691 -.00000015  00000+0  00000+0 0  9998
2 37867  65.1737  78.4187 0024685 236.0850 328.2248  2.13103570110267
COSMOS 2477 (745)       
1 37868U 11064B   26003.49308186 -.00000016  00000+0  00000+0 0  9990
2 37868  65.1800  78.5135 0021659 236.8341 120.2868  2.13102675110245
COSMOS 2475 (743)       
1 37869U 11064C   26003.67292731 -.00000016  00000+0  00000+0 0  9999
2 37869  65.1869  78.5277 0026999 249.9396 200.9939  2.13101384110268
COSMOS 2485 (747)       
1 39155U 13019A   26003.66945380 -.00000015  00000+0  00000+0 0  9994
2 39155  65.3246  79.1301 0025190 231.6902 128.1374  2.13102875 98778
COSMOS 2492 (754)       
1 39620U 14012A   26004.09731832 -.00000065  00000+0  00000+0 0  9993
2 39620  65.3950 319.5128 0014260 315.3599  44.5178  2.13102970 91742
COSMOS 2500 (755)       
1 40001U 14032A   26003.79996671 -.00000065  00000+0  00000+0 0  9990
2 40001  65.3307 319.2832 0007257 219.1043 140.8357  2.13105776 89951
COSMOS 2501 (702K)      
1 40315U 14075A   26003.12143340  .00000087  00000+0  00000+0 0  9992
2 40315  63.6154 196.0841 0020120 203.9107 156.0343  2.13101212 86331
COSMOS 2514 (751)       
1 41330U 16008A   26004.04404132 -.00000065  00000+0  00000+0 0  9996
2 41330  65.1204 318.6401 0011154 219.4964 140.4159  2.13102538 77127
COSMOS 2522 (752)       
1 42939U 17055A   26003.88230909  .00000077  00000+0  00000+0 0  9997
2 42939  64.0775 197.4745 0006222 222.4584 137.5296  2.13101706 64479
COSMOS 2527 (756)       
1 43508U 18053A   26003.84327163 -.00000014  00000+0  00000+0 0  9996
2 43508  65.4836  79.3931 0009143 231.5502 128.4227  2.13102005 58778
COSMOS 2529 (757)       
1 43687U 18086A   26003.00202168  .00000091  00000+0  00000+0 0  9999
2 43687  64.2936 198.1697 0006826 253.0189 106.9502  2.13101796 55767
COSMOS 2534 (758)       
1 44299U 19030A   26003.85201164  .00000078  00000+0  00000+0 0  9992
2 44299  64.3672 198.1476 0008583 283.7695 142.7140  2.13101974 51427
COSMOS 2544 (759)       
1 44850U 19088A   26003.78785148 -.00000014  00000+0  00000+0 0  9990
2 44850  65.4711  79.2215 0014579 252.1047 107.7913  2.13101781 47216
COSMOS 2545 (760)       
1 45358U 20018A   26003.98350490 -.00000065  00000+0  00000+0 0  9995
2 45358  64.4560 318.1902 0011006 251.1692 108.7055  2.13102347 45165
COSMOS 2547 (705K)      
1 46805U 20075A   26003.23322462  .00000087  00000+0  00000+0 0  9995
2 46805  64.5976 197.9784 0006068 226.8955 133.0958  2.13099924 40398
COSMOS 2557 (706K)      
1 52984U 22075A   26003.86766736 -.00000067  00000+0  00000+0 0  9996
2 52984  64.3968 320.2739 0013369 279.1799  80.6612  2.13101607 27214
COSMOS 2559 (707K)      
1 54031U 22130A   26003.21763329 -.00000067  00000+0  00000+0 0  9997
2 54031  64.3695 320.3854 0011290 190.7226 169.2450  2.13101108 25172
COSMOS 2564 (761)       
1 54377U 22161A   26004.00020289  .00000077  00000+0  00000+0 0  9993
2 54377  64.7397 198.1592 0008549 203.1572 156.8413  2.13101967 24133
COSMOS 2569 (703K)      
1 57517U 23114A   26003.54425045 -.00000016  00000+0  00000+0 0  9992
2 57517  65.2055  78.1764 0011365 287.6731  72.2582  2.13103902 18751
COSMOS 2584 (704K)      
1 63130U 25042A   26002.49240527 -.00000021  00000+0  00000+0 0  9991
2 63130  64.9870  78.4388 0007806 223.2470 136.7418  2.13102927  6517
COSMOS 2596 (708K)      
1 65590U 25206B   26004.22197078 -.00000067  00000+0  00000+0 0  9990
2 65590  64.7311 320.6931 0013908 308.5682  56.5283  2.13100037  2420
